{
  "type": "FeatureCollection",
  "features": [
    {
      "type": "Feature",
      "properties": {
        "norad_id": 29268,
        "name": "ARIRANG-2 (KOMPSAT-2)",
        "group": "resource",
        "lat": 73.87936967175382,
        "lon": 144.17355750510345,
        "alt_km": 676.0568518332575,
        "timestamp": "2025-12-09T23:33:23.505680+00:00",
        "meta_object_name": "ARIRANG-2 (KOMPSAT-2)",
        "meta_object_id": "2006-031A",
        "meta_epoch": "2025-12-09T15:25:40.099872",
        "meta_mean_motion": 14.64488935,
        "meta_eccentricity": 0.00136517,
        "meta_inclination": 97.8259,
        "meta_ra_of_asc_node": 172.2667,
        "meta_arg_of_pericenter": 319.7131,
        "meta_mean_anomaly": 131.4493,
        "meta_ephemeris_type": 0,
        "meta_classification_type": "U",
        "meta_norad_cat_id": 29268,
        "meta_element_set_no": 999,
        "meta_rev_at_epoch": 3373,
        "meta_bstar": 0.00010064044,
        "meta_mean_motion_dot": 4.89e-06,
        "meta_mean_motion_ddot": 0,
        "tle_line1": "1 29268U 06031A   25343.64282523  .00000489  00000+0  10064-3 0  9990",
        "tle_line2": "2 29268  97.8259 172.2667 0013651 319.7131 131.4493 14.64488935 33734"
      },
      "geometry": {
        "type": "Point",
        "coordinates": [
          144.17355750510345,
          73.87936967175382
        ]
      }
    },
    {
      "type": "Feature",
      "properties": {
        "norad_id": 29709,
        "name": "LAPAN-TUBSAT",
        "group": "resource",
        "lat": 19.229262296949546,
        "lon": 156.93771195152084,
        "alt_km": 609.7653406346999,
        "timestamp": "2025-12-09T23:33:23.505691+00:00",
        "meta_object_name": "LAPAN-TUBSAT",
        "meta_object_id": "2007-001A",
        "meta_epoch": "2025-12-09T14:45:21.248928",
        "meta_mean_motion": 14.85665591,
        "meta_eccentricity": 0.00137137,
        "meta_inclination": 98.1254,
        "meta_ra_of_asc_node": 333.707,
        "meta_arg_of_pericenter": 83.2814,
        "meta_mean_anomaly": 276.996,
        "meta_ephemeris_type": 0,
        "meta_classification_type": "U",
        "meta_norad_cat_id": 29709,
        "meta_element_set_no": 999,
        "meta_rev_at_epoch": 2300,
        "meta_bstar": 0.00019876696,
        "meta_mean_motion_dot": 1.668e-05,
        "meta_mean_motion_ddot": 0,
        "tle_line1": "1 29709U 07001A   25343.61482927  .00001668  00000+0  19877-3 0  9996",
        "tle_line2": "2 29709  98.1254 333.7070 0013713  83.2814 276.9960 14.85665591 23006"
      },
      "geometry": {
        "type": "Point",
        "coordinates": [
          156.93771195152084,
          19.229262296949546
        ]
      }
    },
    {
      "type": "Feature",
      "properties": {
        "norad_id": 31113,
        "name": "HAIYANG-1B",
        "group": "resource",
        "lat": -47.307365292479055,
        "lon": 139.23415286793818,
        "alt_km": 805.6098840660279,
        "timestamp": "2025-12-09T23:33:23.505702+00:00",
        "meta_object_name": "HAIYANG-1B",
        "meta_object_id": "2007-010A",
        "meta_epoch": "2025-12-09T12:25:34.853664",
        "meta_mean_motion": 14.30963435,
        "meta_eccentricity": 0.00144,
        "meta_inclination": 98.3311,
        "meta_ra_of_asc_node": 327.929,
        "meta_arg_of_pericenter": 46.9452,
        "meta_mean_anomaly": 313.2934,
        "meta_ephemeris_type": 0,
        "meta_classification_type": "U",
        "meta_norad_cat_id": 31113,
        "meta_element_set_no": 999,
        "meta_rev_at_epoch": 97350,
        "meta_bstar": 0.0001049129,
        "meta_mean_motion_dot": 2.35e-06,
        "meta_mean_motion_ddot": 0,
        "tle_line1": "1 31113U 07010A   25343.51776451  .00000235  00000+0  10491-3 0  9997",
        "tle_line2": "2 31113  98.3311 327.9290 0014400  46.9452 313.2934 14.30963435973504"
      },
      "geometry": {
        "type": "Point",
        "coordinates": [
          139.23415286793818,
          -47.307365292479055
        ]
      }
    },
    {
      "type": "Feature",
      "properties": {
        "norad_id": 31598,
        "name": "COSMO-SKYMED 1",
        "group": "resource",
        "lat": 16.180794500712633,
        "lon": 167.05853312911935,
        "alt_km": 580.5132544463722,
        "timestamp": "2025-12-09T23:33:23.505714+00:00",
        "meta_object_name": "COSMO-SKYMED 1",
        "meta_object_id": "2007-023A",
        "meta_epoch": "2025-12-09T13:51:01.211040",
        "meta_mean_motion": 14.95727092,
        "meta_eccentricity": 0.00010484,
        "meta_inclination": 97.8835,
        "meta_ra_of_asc_node": 168.9559,
        "meta_arg_of_pericenter": 83.3392,
        "meta_mean_anomaly": 276.7948,
        "meta_ephemeris_type": 0,
        "meta_classification_type": "U",
        "meta_norad_cat_id": 31598,
        "meta_element_set_no": 999,
        "meta_rev_at_epoch": 143,
        "meta_bstar": 0.00052481854,
        "meta_mean_motion_dot": 5.788e-05,
        "meta_mean_motion_ddot": 0,
        "tle_line1": "1 31598U 07023A   25343.57709735  .00005788  00000+0  52482-3 0  9999",
        "tle_line2": "2 31598  97.8835 168.9559 0001048  83.3392 276.7948 14.95727092  1439"
      },
      "geometry": {
        "type": "Point",
        "coordinates": [
          167.05853312911935,
          16.180794500712633
        ]
      }
    },
    {
      "type": "Feature",
      "properties": {
        "norad_id": 31698,
        "name": "TERRASAR-X",
        "group": "resource",
        "lat": 19.311670454447267,
        "lon": 172.02904551308578,
        "alt_km": 508.3326867053074,
        "timestamp": "2025-12-09T23:33:23.505725+00:00",
        "meta_object_name": "TERRASAR-X",
        "meta_object_id": "2007-026A",
        "meta_epoch": "2025-12-09T11:47:13.204320",
        "meta_mean_motion": 15.19146544,
        "meta_eccentricity": 0.00019615,
        "meta_inclination": 97.4451,
        "meta_ra_of_asc_node": 348.9193,
        "meta_arg_of_pericenter": 86.8081,
        "meta_mean_anomaly": 273.3378,
        "meta_ephemeris_type": 0,
        "meta_classification_type": "U",
        "meta_norad_cat_id": 31698,
        "meta_element_set_no": 999,
        "meta_rev_at_epoch": 2442,
        "meta_bstar": 0.00012751416,
        "meta_mean_motion_dot": 2.611e-05,
        "meta_mean_motion_ddot": 0,
        "tle_line1": "1 31698U 07026A   25343.49112505  .00002611  00000+0  12751-3 0  9994",
        "tle_line2": "2 31698  97.4451 348.9193 0001961  86.8081 273.3378 15.19146544 24429"
      },
      "geometry": {
        "type": "Point",
        "coordinates": [
          172.02904551308578,
          19.311670454447267
        ]
      }
    },
    {
      "type": "Feature",
      "properties": {
        "norad_id": 32060,
        "name": "WORLDVIEW-1 (WV-1)",
        "group": "resource",
        "lat": 71.33160970977369,
        "lon": -55.92790033822191,
        "alt_km": 484.57651718306533,
        "timestamp": "2025-12-09T23:33:23.505735+00:00",
        "meta_object_name": "WORLDVIEW-1 (WV-1)",
        "meta_object_id": "2007-041A",
        "meta_epoch": "2025-12-09T15:12:44.338464",
        "meta_mean_motion": 15.24606396,
        "meta_eccentricity": 7.346e-05,
        "meta_inclination": 97.3838,
        "meta_ra_of_asc_node": 101.1588,
        "meta_arg_of_pericenter": 103.996,
        "meta_mean_anomaly": 256.136,
        "meta_ephemeris_type": 0,
        "meta_classification_type": "U",
        "meta_norad_cat_id": 32060,
        "meta_element_set_no": 999,
        "meta_rev_at_epoch": 1400,
        "meta_bstar": 0.00047792291,
        "meta_mean_motion_dot": 0.00011724,
        "meta_mean_motion_ddot": 0,
        "tle_line1": "1 32060U 07041A   25343.63384651  .00011724  00000+0  47792-3 0  9992",
        "tle_line2": "2 32060  97.3838 101.1588 0000734 103.9960 256.1360 15.24606396 14007"
      },
      "geometry": {
        "type": "Point",
        "coordinates": [
          -55.92790033822191,
          71.33160970977369
        ]
      }
    },
    {
      "type": "Feature",
      "properties": {
        "norad_id": 32289,
        "name": "YAOGAN-3",
        "group": "resource",
        "lat": -73.70724234886633,
        "lon": 38.74329606128965,
        "alt_km": 606.5645646756357,
        "timestamp": "2025-12-09T23:33:23.505746+00:00",
        "meta_object_name": "YAOGAN-3",
        "meta_object_id": "2007-055A",
        "meta_epoch": "2025-12-09T14:13:27.583968",
        "meta_mean_motion": 14.89833857,
        "meta_eccentricity": 0.00014218,
        "meta_inclination": 97.8364,
        "meta_ra_of_asc_node": 10.2458,
        "meta_arg_of_pericenter": 69.3822,
        "meta_mean_anomaly": 290.7548,
        "meta_ephemeris_type": 0,
        "meta_classification_type": "U",
        "meta_norad_cat_id": 32289,
        "meta_element_set_no": 999,
        "meta_rev_at_epoch": 97762,
        "meta_bstar": 0.00030154157,
        "meta_mean_motion_dot": 2.84e-05,
        "meta_mean_motion_ddot": 0,
        "tle_line1": "1 32289U 07055A   25343.59268037  .00002840  00000+0  30154-3 0  9997",
        "tle_line2": "2 32289  97.8364  10.2458 0001421  69.3822 290.7548 14.89833857977623"
      },
      "geometry": {
        "type": "Point",
        "coordinates": [
          38.74329606128965,
          -73.70724234886633
        ]
      }
    }
  ]
}